{"spkid": "20214869", "covariance": {"epoch": "2457561.5", "labels": ["e", "q", "tp", "node", "peri", "i"], "data": [["4.157716531420048E-17", "-9.248253028092252E-17", "7.185179965712144E-14", "2.019488955955153E-13", "-1.983529129524934E-13", "6.19336555519526E-15"], ["-9.248253028092252E-17", "2.523096588486849E-16", "-3.591613246891439E-14", "-5.05783934291462E-13", "4.948049696905216E-13", "-1.632805964657186E-14"], ["7.185179965712144E-14", "-3.591613246891439E-14", "4.541062161150644E-10", "2.530094193681782E-10", "-2.543617664838882E-10", "4.24095055585065E-12"], ["2.019488955955153E-13", "-5.05783934291462E-13", "2.530094193681782E-10", "8.587156767862837E-9", "-8.52546916717731E-9", "8.032096465414461E-11"], ["-1.983529129524934E-13", "4.948049696905216E-13", "-2.543617664838882E-10", "-8.52546916717731E-9", "8.464605973459124E-9", "-7.939540131700229E-11"], ["6.19336555519526E-15", "-1.632805964657186E-14", "4.24095055585065E-12", "8.032096465414461E-11", "-7.939540131700229E-11", "1.364404116722659E-12"]], "elements": [{"sigma": 6.44803577178357e-09, "name": "e", "units": null, "value": ".6612989637881751", "title": "eccentricity", "label": "e"}, {"label": "q", "sigma": 1.58842582089528e-08, "name": "q", "units": "au", "value": ".9566765735423184", "title": "perihelion distance"}, {"sigma": 2.13097680915364e-05, "name": "tp", "units": "TDB", "value": "2457993.668748546570", "title": "time of perihelion passage", "label": "tp"}, {"value": "142.6275713891216", "title": "longitude of the ascending node", "units": "deg", "name": "om", "sigma": 9.2666913015719e-05, "label": "node"}, {"sigma": 9.20032932750732e-05, "name": "w", "units": "deg", "title": "argument of perihelion", "value": "292.3400025570417", "label": "peri"}, {"name": "i", "sigma": 1.16807710221657e-06, "title": "inclination", "value": "1.984100935331755", "units": "deg", "label": "i"}]}, "elements": [{"label": "e", "sigma": "7.0028E-9", "name": "e", "units": null, "title": "eccentricity", "value": ".6529251606863905"}, {"sigma": "2.2281E-8", "name": "a", "units": "au", "value": "2.848717448073711", "title": "semi-major axis", "label": "a"}, {"label": "q", "units": "au", "title": "perihelion distance", "value": ".9887181505400591", "name": "q", "sigma": "1.5812E-8"}, {"label": "i", "units": "deg", "title": "inclination; angle with respect to x-y ecliptic plane", "value": "1.998216349376156", "name": "i", "sigma": "1.144E-6"}, {"label": "node", "units": "deg", "title": "longitude of the ascending node", "value": "141.2725397180351", "name": "om", "sigma": "9.0057E-5"}, {"label": "peri", "value": "293.89651596175", "title": "argument of perihelion", "units": "deg", "sigma": "8.9391E-5", "name": "w"}, {"title": "mean anomaly", "value": "298.6513058137833", "units": "deg", "name": "ma", "sigma": "1.1957E-5", "label": "M"}, {"label": "tp", "sigma": "6.1841E-5", "name": "tp", "units": "TDB", "title": "time of perihelion passage", "value": "2461499.778358149501"}, {"title": "sidereal orbital period", "value": "1756.194004827353", "units": "d", "name": "per", "sigma": "2.0604E-5", "label": "period"}, {"name": "n", "sigma": "2.405E-9", "value": ".2049887421380821", "title": "mean motion", "units": "deg/d", "label": "n"}, {"name": "ad", "sigma": "3.6829E-8", "units": "au", "title": "aphelion distance", "value": "4.708716745607363", "label": "Q"}], "epoch": "2461200.5"}